[{"OBJECT_NAME":"HELIOS 1B","OBJECT_ID":"1999-064A","EPOCH":"2026-03-17T15:36:26.139456","MEAN_MOTION":14.87730442,"ECCENTRICITY":0.00022861,"INCLINATION":98.1688,"RA_OF_ASC_NODE":339.1273,"ARG_OF_PERICENTER":63.626,"MEAN_ANOMALY":296.519,"EPHEMERIS_TYPE":0,"CLASSIFICATION_TYPE":"U","NORAD_CAT_ID":25977,"ELEMENT_SET_NO":999,"REV_AT_EPOCH":68644,"BSTAR":0.00017750691,"MEAN_MOTION_DOT":1.56e-5,"MEAN_MOTION_DDOT":0},{"OBJECT_NAME":"TERRA","OBJECT_ID":"1999-068A","EPOCH":"2026-03-17T21:16:27.282432","MEAN_MOTION":14.61023383,"ECCENTRICITY":0.0003186,"INCLINATION":97.9576,"RA_OF_ASC_NODE":130.0074,"ARG_OF_PERICENTER":133.6614,"MEAN_ANOMALY":39.5265,"EPHEMERIS_TYPE":0,"CLASSIFICATION_TYPE":"U","NORAD_CAT_ID":25994,"ELEMENT_SET_NO":999,"REV_AT_EPOCH":39627,"BSTAR":8.5405e-5,"MEAN_MOTION_DOT":3.75e-6,"MEAN_MOTION_DDOT":0},{"OBJECT_NAME":"SL-16 R/B","OBJECT_ID":"2000-006B","EPOCH":"2026-03-17T10:20:26.641824","MEAN_MOTION":14.15824038,"ECCENTRICITY":0.00163346,"INCLINATION":71.0003,"RA_OF_ASC_NODE":81.5586,"ARG_OF_PERICENTER":178.259,"MEAN_ANOMALY":181.8593,"EPHEMERIS_TYPE":0,"CLASSIFICATION_TYPE":"U","NORAD_CAT_ID":26070,"ELEMENT_SET_NO":999,"REV_AT_EPOCH":34965,"BSTAR":-6.5400501e-5,"MEAN_MOTION_DOT":-1.77e-6,"MEAN_MOTION_DDOT":0},{"OBJECT_NAME":"TITAN 4B R/B","OBJECT_ID":"2000-047B","EPOCH":"2026-03-17T20:18:18.085824","MEAN_MOTION":15.09643549,"ECCENTRICITY":0.0038889,"INCLINATION":67.9913,"RA_OF_ASC_NODE":17.5733,"ARG_OF_PERICENTER":25.7061,"MEAN_ANOMALY":334.601,"EPHEMERIS_TYPE":0,"CLASSIFICATION_TYPE":"U","NORAD_CAT_ID":26474,"ELEMENT_SET_NO":999,"REV_AT_EPOCH":39414,"BSTAR":0.00021222,"MEAN_MOTION_DOT":3.346e-5,"MEAN_MOTION_DDOT":0},{"OBJECT_NAME":"ENVISAT","OBJECT_ID":"2002-009A","EPOCH":"2026-03-17T21:04:25.108032","MEAN_MOTION":14.3903988,"ECCENTRICITY":0.0001305,"INCLINATION":98.3742,"RA_OF_ASC_NODE":30.2811,"ARG_OF_PERICENTER":82.5058,"MEAN_ANOMALY":296.4268,"EPHEMERIS_TYPE":0,"CLASSIFICATION_TYPE":"U","NORAD_CAT_ID":27386,"ELEMENT_SET_NO":999,"REV_AT_EPOCH":26035,"BSTAR":4.5637e-5,"MEAN_MOTION_DOT":9.8e-7,"MEAN_MOTION_DDOT":0},{"OBJECT_NAME":"IDEFIX & ARIANE 42P R/B","OBJECT_ID":"2002-021B","EPOCH":"2026-03-17T19:35:30.239808","MEAN_MOTION":14.31031735,"ECCENTRICITY":0.0012055,"INCLINATION":98.5879,"RA_OF_ASC_NODE":15.3258,"ARG_OF_PERICENTER":158.264,"MEAN_ANOMALY":201.9056,"EPHEMERIS_TYPE":0,"CLASSIFICATION_TYPE":"U","NORAD_CAT_ID":27422,"ELEMENT_SET_NO":999,"REV_AT_EPOCH":24518,"BSTAR":0.00010887,"MEAN_MOTION_DOT":2.43e-6,"MEAN_MOTION_DDOT":0},{"OBJECT_NAME":"AQUA","OBJECT_ID":"2002-022A","EPOCH":"2026-03-17T21:22:36.706368","MEAN_MOTION":14.61996341,"ECCENTRICITY":7.05e-5,"INCLINATION":98.4188,"RA_OF_ASC_NODE":44.4058,"ARG_OF_PERICENTER":108.6502,"MEAN_ANOMALY":277.1715,"EPHEMERIS_TYPE":0,"CLASSIFICATION_TYPE":"U","NORAD_CAT_ID":27424,"ELEMENT_SET_NO":999,"REV_AT_EPOCH":26993,"BSTAR":0.00018458,"MEAN_MOTION_DOT":8.76e-6,"MEAN_MOTION_DDOT":0},{"OBJECT_NAME":"CZ-4B R/B","OBJECT_ID":"2002-024C","EPOCH":"2026-03-17T10:03:18.302112","MEAN_MOTION":14.145489,"ECCENTRICITY":0.0050102,"INCLINATION":98.8822,"RA_OF_ASC_NODE":129.7861,"ARG_OF_PERICENTER":2.3402,"MEAN_ANOMALY":8.0799,"EPHEMERIS_TYPE":0,"CLASSIFICATION_TYPE":"U","NORAD_CAT_ID":27432,"ELEMENT_SET_NO":999,"REV_AT_EPOCH":23033,"BSTAR":3.8969627e-5,"MEAN_MOTION_DOT":3.1e-7,"MEAN_MOTION_DDOT":0},{"OBJECT_NAME":"MIDORI II (ADEOS-II)","OBJECT_ID":"2002-056A","EPOCH":"2026-03-17T08:44:27.021696","MEAN_MOTION":14.29291076,"ECCENTRICITY":0.00012942,"INCLINATION":98.7781,"RA_OF_ASC_NODE":34.8954,"ARG_OF_PERICENTER":33.7265,"MEAN_ANOMALY":326.3998,"EPHEMERIS_TYPE":0,"CLASSIFICATION_TYPE":"U","NORAD_CAT_ID":27597,"ELEMENT_SET_NO":999,"REV_AT_EPOCH":21139,"BSTAR":0.00012399447,"MEAN_MOTION_DOT":2.7e-6,"MEAN_MOTION_DDOT":0},{"OBJECT_NAME":"H-2A R/B","OBJECT_ID":"2002-056E","EPOCH":"2026-03-17T09:27:22.465728","MEAN_MOTION":14.33765774,"ECCENTRICITY":0.00709378,"INCLINATION":98.3216,"RA_OF_ASC_NODE":36.4669,"ARG_OF_PERICENTER":137.8889,"MEAN_ANOMALY":335.5025,"EPHEMERIS_TYPE":0,"CLASSIFICATION_TYPE":"U","NORAD_CAT_ID":27601,"ELEMENT_SET_NO":999,"REV_AT_EPOCH":21521,"BSTAR":9.3951737e-5,"MEAN_MOTION_DOT":2.27e-6,"MEAN_MOTION_DDOT":0},{"OBJECT_NAME":"CZ-4B R/B","OBJECT_ID":"2003-049C","EPOCH":"2026-03-17T20:12:24.491232","MEAN_MOTION":14.55027789,"ECCENTRICITY":0.0047618,"INCLINATION":98.6886,"RA_OF_ASC_NODE":72.0671,"ARG_OF_PERICENTER":205.5905,"MEAN_ANOMALY":154.2934,"EPHEMERIS_TYPE":0,"CLASSIFICATION_TYPE":"U","NORAD_CAT_ID":28059,"ELEMENT_SET_NO":999,"REV_AT_EPOCH":18778,"BSTAR":8.2547e-5,"MEAN_MOTION_DOT":3.09e-6,"MEAN_MOTION_DDOT":0},{"OBJECT_NAME":"CZ-2C R/B","OBJECT_ID":"2004-012C","EPOCH":"2026-03-17T14:26:17.235168","MEAN_MOTION":15.65474299,"ECCENTRICITY":0.00129636,"INCLINATION":97.7215,"RA_OF_ASC_NODE":142.6489,"ARG_OF_PERICENTER":277.3923,"MEAN_ANOMALY":82.5862,"EPHEMERIS_TYPE":0,"CLASSIFICATION_TYPE":"U","NORAD_CAT_ID":28222,"ELEMENT_SET_NO":999,"REV_AT_EPOCH":20551,"BSTAR":0.00047736226,"MEAN_MOTION_DOT":0.00047966,"MEAN_MOTION_DDOT":0},{"OBJECT_NAME":"SL-16 R/B","OBJECT_ID":"2004-021B","EPOCH":"2026-03-17T19:13:34.942368","MEAN_MOTION":14.14594515,"ECCENTRICITY":0.0004473,"INCLINATION":70.9997,"RA_OF_ASC_NODE":215.4694,"ARG_OF_PERICENTER":358.9291,"MEAN_ANOMALY":1.1821,"EPHEMERIS_TYPE":0,"CLASSIFICATION_TYPE":"U","NORAD_CAT_ID":28353,"ELEMENT_SET_NO":999,"REV_AT_EPOCH":12398,"BSTAR":-0.00011065,"MEAN_MOTION_DOT":-2.6e-6,"MEAN_MOTION_DDOT":0},{"OBJECT_NAME":"CZ-4B R/B","OBJECT_ID":"2004-035C","EPOCH":"2026-03-17T19:51:13.569696","MEAN_MOTION":15.29206857,"ECCENTRICITY":0.0030225,"INCLINATION":97.3484,"RA_OF_ASC_NODE":110.9725,"ARG_OF_PERICENTER":301.3394,"MEAN_ANOMALY":58.4889,"EPHEMERIS_TYPE":0,"CLASSIFICATION_TYPE":"U","NORAD_CAT_ID":28415,"ELEMENT_SET_NO":999,"REV_AT_EPOCH":18115,"BSTAR":0.00021138,"MEAN_MOTION_DOT":5.995e-5,"MEAN_MOTION_DDOT":0},{"OBJECT_NAME":"CZ-2C R/B","OBJECT_ID":"2004-046B","EPOCH":"2026-03-17T18:13:47.313696","MEAN_MOTION":14.26994914,"ECCENTRICITY":0.0140314,"INCLINATION":98.1981,"RA_OF_ASC_NODE":351.241,"ARG_OF_PERICENTER":130.6844,"MEAN_ANOMALY":230.663,"EPHEMERIS_TYPE":0,"CLASSIFICATION_TYPE":"U","NORAD_CAT_ID":28480,"ELEMENT_SET_NO":999,"REV_AT_EPOCH":10965,"BSTAR":6.089e-5,"MEAN_MOTION_DOT":1.24e-6,"MEAN_MOTION_DDOT":0},{"OBJECT_NAME":"ARIANE 5 R/B","OBJECT_ID":"2004-049H","EPOCH":"2026-03-17T10:44:09.758688","MEAN_MOTION":14.85280003,"ECCENTRICITY":0.00833979,"INCLINATION":98.2639,"RA_OF_ASC_NODE":245.1954,"ARG_OF_PERICENTER":326.6505,"MEAN_ANOMALY":32.9471,"EPHEMERIS_TYPE":0,"CLASSIFICATION_TYPE":"U","NORAD_CAT_ID":28499,"ELEMENT_SET_NO":999,"REV_AT_EPOCH":14694,"BSTAR":8.358085e-5,"MEAN_MOTION_DOT":6.98e-6,"MEAN_MOTION_DDOT":0},{"OBJECT_NAME":"CZ-2D R/B","OBJECT_ID":"2005-024B","EPOCH":"2026-03-17T18:55:58.630656","MEAN_MOTION":15.60885881,"ECCENTRICITY":0.0004433,"INCLINATION":97.3586,"RA_OF_ASC_NODE":92.2363,"ARG_OF_PERICENTER":24.3625,"MEAN_ANOMALY":335.7841,"EPHEMERIS_TYPE":0,"CLASSIFICATION_TYPE":"U","NORAD_CAT_ID":28738,"ELEMENT_SET_NO":999,"REV_AT_EPOCH":14104,"BSTAR":0.00039929,"MEAN_MOTION_DOT":0.00033342,"MEAN_MOTION_DDOT":0}]
